{"type":"FeatureCollection","features":[{"type":"Feature","properties":{"cod_dep":"01","nombre":"ANTIOQUIA"},"geometry":{"type":"Polygon","coordinates":[[[-74.8302,8.1999],[-74.7849,8.1317],[-74.7249,8.1168],[-74.6049,8.0375],[-74.5192,7.9012],[-74.5082,7.7239],[-74.5609,7.6458],[-74.5682,7.5194],[-74.5988,7.4624],[-74.4911,7.3434],[-74.414,7.3992],[-74.4128,7.4599],[-74.3197,7.4401],[-74.3981,7.3484],[-74.4103,7.2021],[-74.3222,7.0187],[-74.2463,7.0026],[-73.9157,7.2951],[-73.939,7.1823],[-73.8876,7.0707],[-73.8974,6.9864],[-74.0112,6.9133],[-74.1153,6.7658],[-74.2316,6.71],[-74.2561,6.6753],[-74.3589,6.6332],[-74.4091,6.5861],[-74.3968,6.4522],[-74.4507,6.332],[-74.5266,6.2737],[-74.6123,6.1262],[-74.5621,6.0779],[-74.5633,6.0023],[-74.6123,5.9664],[-74.5902,5.8945],[-74.638,5.866],[-74.6649,5.768],[-74.7139,5.7693],[-74.7396,5.6999],[-74.8069,5.6999],[-74.8657,5.747],[-74.993,5.716],[-75.0995,5.6429],[-75.0909,5.5858],[-75.1472,5.5301],[-75.2207,5.5028],[-75.2758,5.4185],[-75.3774,5.6738],[-75.479,5.6639],[-75.599,5.737],[-75.5696,5.5226],[-75.6895,5.5189],[-75.7299,5.5635],[-75.8683,5.4904],[-75.9833,5.5189],[-76.009,5.5672],[-76.0066,5.623],[-76.0874,5.6887],[-76.0629,5.7271],[-76.0984,5.8498],[-76.0568,5.8957],[-76.1045,6.0184],[-76.1596,6.0035],[-76.1914,6.0593],[-76.2098,6.1845],[-76.238,6.2081],[-76.3775,6.1932],[-76.4204,6.1659],[-76.6015,6.1919],[-76.7166,6.1709],[-76.7178,6.2155],[-76.79,6.3184],[-76.7778,6.4894],[-76.899,6.5799],[-76.9541,6.6753],[-76.9724,6.798],[-76.8757,6.8513],[-76.7937,6.865],[-76.8243,7.005],[-76.6762,7.0298],[-76.5477,7.0013],[-76.4999,7.1686],[-76.5305,7.2554],[-76.615,7.3124],[-76.6615,7.4488],[-76.8011,7.5715],[-76.9357,7.5839],[-76.9602,7.6396],[-77.123,7.7896],[-77.0263,7.89],[-76.9969,8.0189],[-76.9382,8.0685],[-76.9798,8.2557],[-76.9247,8.0251],[-76.9223,7.9173],[-76.828,7.9024],[-76.7484,7.9222],[-76.7337,8.071],[-76.7386,8.1738],[-76.7741,8.2681],[-76.7582,8.392],[-76.8243,8.4961],[-76.9271,8.542],[-76.8855,8.6225],[-76.6493,8.6709],[-76.6309,8.7304],[-76.544,8.7626],[-76.413,8.8742],[-76.3396,8.6411],[-76.2661,8.6387],[-76.2098,8.5234],[-76.2269,8.3808],[-76.2882,8.3288],[-76.3518,8.2036],[-76.3481,8.1553],[-76.4289,8.0586],[-76.4118,8.0065],[-76.4816,7.8206],[-76.4938,7.5417],[-76.3812,7.3918],[-75.845,7.3471],[-75.7422,7.6124],[-75.7116,7.5814],[-75.6051,7.5851],[-75.4741,7.7772],[-75.3296,7.9272],[-75.2207,8.066],[-75.1925,8.0474],[-75.0567,8.0474],[-74.9661,8.0896],[-74.9281,8.0747],[-74.8302,8.1999]]]}},{"type":"Feature","properties":{"cod_dep":"03","nombre":"ATLANTICO"},"geometry":{"type":"Polygon","coordinates":[[[-74.911,10.2537],[-74.9648,10.3256],[-75.0824,10.4123],[-75.1264,10.3987],[-75.2415,10.5202],[-75.2231,10.6305],[-75.2501,10.7234],[-75.2244,10.7953],[-75.0444,10.8994],[-75.0052,10.98],[-74.8522,11.1052],[-74.7641,10.9949],[-74.7212,10.9044],[-74.7359,10.5511],[-74.8094,10.4756],[-74.8277,10.4111],[-74.911,10.2537]]]}},{"type":"Feature","properties":{"cod_dep":"05","nombre":"BOLIVAR"},"geometry":{"type":"Polygon","coordinates":[[[-75.2244,10.7953],[-75.2501,10.7234],[-75.2231,10.6305],[-75.2415,10.5202],[-75.1264,10.3987],[-75.0824,10.4123],[-74.9648,10.3256],[-74.911,10.2537],[-74.9453,10.1285],[-74.84,10.0789],[-74.7873,10.0083],[-74.873,9.9351],[-74.873,9.8484],[-74.8155,9.7852],[-74.8033,9.6674],[-74.7726,9.6042],[-74.8057,9.5534],[-74.7371,9.422],[-74.6992,9.4269],[-74.5645,9.3117],[-74.5143,9.2336],[-74.4397,9.2745],[-74.403,9.2138],[-74.3418,9.2311],[-74.2487,9.1642],[-74.1753,9.0749],[-74.1043,9.0216],[-74.0039,9.0303],[-73.8717,8.9609],[-73.868,8.9361],[-73.8668,8.8865],[-73.7958,8.8184],[-73.7896,8.749],[-73.8203,8.6622],[-73.7468,8.4664],[-73.775,8.1453],[-73.8668,8.0697],[-73.8619,7.9718],[-73.8313,7.9322],[-73.7982,7.7723],[-73.83,7.7276],[-73.7982,7.657],[-73.846,7.5417],[-73.917,7.4723],[-73.8949,7.4314],[-73.9157,7.2951],[-74.2463,7.0026],[-74.3222,7.0187],[-74.4103,7.2021],[-74.3981,7.3484],[-74.3197,7.4401],[-74.4128,7.4599],[-74.414,7.3992],[-74.4911,7.3434],[-74.5988,7.4624],[-74.5682,7.5194],[-74.5609,7.6458],[-74.5082,7.7239],[-74.5192,7.9012],[-74.6049,8.0375],[-74.7249,8.1168],[-74.7849,8.1317],[-74.8302,8.1999],[-74.7812,8.278],[-74.649,8.3139],[-74.5401,8.4255],[-74.5339,8.4763],[-74.6086,8.7304],[-74.5401,8.8047],[-74.6392,8.977],[-74.8277,9.0613],[-74.8645,9.1481],[-74.9024,9.163],[-74.9416,9.3514],[-74.9122,9.4158],[-75.0322,9.4666],[-75.1325,9.5955],[-75.2794,9.686],[-75.3247,9.6253],[-75.3749,9.6575],[-75.3358,9.8124],[-75.3933,9.8806],[-75.4667,9.9091],[-75.4912,10.038],[-75.5732,10.0863],[-75.5243,10.1731],[-75.5622,10.2698],[-75.5035,10.3008],[-75.512,10.5722],[-75.3957,10.6813],[-75.2758,10.7148],[-75.2244,10.7953]]]}},{"type":"Feature","properties":{"cod_dep":"07","nombre":"BOYACA"},"geometry":{"type":"Polygon","coordinates":[[[-72.0477,7.0385],[-71.9485,7.0112],[-72.0514,6.7683],[-72.1003,6.746],[-72.0918,6.6481],[-72.1383,6.5142],[-72.2607,6.4423],[-72.339,6.3456],[-72.3709,6.3196],[-72.4125,6.1882],[-72.3745,6.1498],[-72.366,6.037],[-72.3256,5.9354],[-72.4162,5.9031],[-72.459,5.8511],[-72.3097,5.7941],[-72.2264,5.6676],[-72.2876,5.6057],[-72.3011,5.5065],[-72.3966,5.5697],[-72.5019,5.4445],[-72.6879,5.2822],[-72.8116,5.3826],[-72.8801,5.3503],[-72.8972,5.2599],[-72.9731,5.1458],[-72.9034,5.0677],[-72.9707,4.9797],[-73.0148,5.002],[-73.0772,4.8124],[-73.0527,4.7368],[-73.1029,4.6612],[-73.2241,4.6786],[-73.2229,4.7331],[-73.3061,4.7318],[-73.3722,4.8012],[-73.4016,4.8793],[-73.5203,4.8793],[-73.5473,4.924],[-73.5154,5.0355],[-73.4799,5.064],[-73.5314,5.2785],[-73.5779,5.302],[-73.6183,5.4049],[-73.7823,5.5003],[-73.8178,5.5536],[-73.89,5.5127],[-73.906,5.4458],[-73.9904,5.3751],[-74.1434,5.4483],[-74.3099,5.6193],[-74.2867,5.7457],[-74.3344,5.8275],[-74.4323,5.7581],[-74.5303,5.7904],[-74.5927,5.747],[-74.6612,5.7519],[-74.6649,5.768],[-74.638,5.866],[-74.5902,5.8945],[-74.6123,5.9664],[-74.5633,6.0023],[-74.5621,6.0779],[-74.6123,6.1262],[-74.5266,6.2737],[-74.4519,6.099],[-74.3785,6.0395],[-74.2867,6.0829],[-74.1802,5.9106],[-74.0259,5.8065],[-73.9978,5.7408],[-73.9047,5.7395],[-73.8619,5.711],[-73.7113,5.7767],[-73.6391,5.7247],[-73.5999,5.8697],[-73.6305,5.8945],[-73.5864,6.006],[-73.4971,6.1077],[-73.4028,6.0544],[-73.371,6.006],[-73.4016,5.9019],[-73.4444,5.9019],[-73.4738,5.8164],[-73.3906,5.7507],[-73.3453,5.8424],[-73.1837,5.8498],[-73.2192,5.9131],[-73.1996,6.0035],[-73.1298,5.9589],[-72.9536,6.0655],[-72.8042,6.2155],[-72.7442,6.2353],[-72.7577,6.3171],[-72.732,6.3568],[-72.7357,6.4906],[-72.661,6.4436],[-72.5398,6.4882],[-72.5459,6.5675],[-72.4859,6.6567],[-72.5031,6.9084],[-72.3929,6.8724],[-72.3133,6.9319],[-72.2913,6.9939],[-72.2203,6.9864],[-72.1995,7.041],[-72.0477,7.0385]]]}},{"type":"Feature","properties":{"cod_dep":"09","nombre":"CALDAS"},"geometry":{"type":"Polygon","coordinates":[[[-74.6649,5.768],[-74.6612,5.7519],[-74.627,5.6974],[-74.6747,5.5164],[-74.6674,5.4049],[-74.7347,5.2871],[-74.851,5.3144],[-74.9391,5.3132],[-75.0567,5.2747],[-75.1166,5.1607],[-75.288,5.1384],[-75.3443,5.0814],[-75.3174,5.0281],[-75.3517,4.9388],[-75.3235,4.8657],[-75.3749,4.8025],[-75.4276,4.8161],[-75.4827,4.9165],[-75.714,4.9562],[-75.7471,5.0467],[-75.8144,4.919],[-75.8903,4.9599],[-75.9172,5.0789],[-75.8022,5.1979],[-75.8034,5.2809],[-75.6932,5.2549],[-75.6479,5.3082],[-75.7397,5.3974],[-75.8107,5.3615],[-75.8585,5.3776],[-75.8683,5.4904],[-75.7299,5.5635],[-75.6895,5.5189],[-75.5696,5.5226],[-75.599,5.737],[-75.479,5.6639],[-75.3774,5.6738],[-75.2758,5.4185],[-75.2207,5.5028],[-75.1472,5.5301],[-75.0909,5.5858],[-75.0995,5.6429],[-74.993,5.716],[-74.8657,5.747],[-74.8069,5.6999],[-74.7396,5.6999],[-74.7139,5.7693],[-74.6649,5.768]]]}},{"type":"Feature","properties":{"cod_dep":"11","nombre":"CAUCA"},"geometry":{"type":"Polygon","coordinates":[[[-76.0556,3.2234],[-76.0911,3.1986],[-76.0727,3.0499],[-76.0213,3.0053],[-76.0286,2.9408],[-75.8964,2.8553],[-75.823,2.8355],[-75.8058,2.7685],[-75.7483,2.7189],[-75.8401,2.5578],[-75.823,2.4834],[-75.8634,2.4264],[-75.9797,2.5033],[-76.0335,2.4016],[-76.1266,2.3806],[-76.1462,2.2938],[-76.1217,2.2244],[-76.2086,2.1984],[-76.3028,2.2839],[-76.3849,2.269],[-76.4253,2.129],[-76.5538,2.1401],[-76.5893,2.1079],[-76.5868,2.0],[-76.6248,1.974],[-76.5881,1.8662],[-76.4338,1.7906],[-76.3702,1.7323],[-76.3812,1.6666],[-76.2453,1.6827],[-76.1694,1.5885],[-76.2037,1.3531],[-76.3028,1.2365],[-76.2808,1.1374],[-76.1523,1.1089],[-76.0849,1.0581],[-76.1657,1.0295],[-76.2135,0.9787],[-76.4008,0.98],[-76.4228,0.9601],[-76.544,1.037],[-76.5624,1.0729],[-76.5403,1.2043],[-76.5856,1.3047],[-76.6015,1.4138],[-76.697,1.4435],[-76.8855,1.3729],[-76.921,1.3456],[-76.9284,1.4832],[-76.8341,1.6146],[-76.9357,1.7286],[-77.2393,1.658],[-77.3299,1.6865],[-77.2809,1.86],[-77.2038,1.9517],[-77.3324,2.0496],[-77.3079,2.1079],[-77.3226,2.2219],[-77.4597,2.2864],[-77.4878,2.1947],[-77.5539,2.2021],[-77.7339,2.1339],[-77.8355,2.1761],[-77.8477,2.2603],[-77.9175,2.4116],[-77.9285,2.6409],[-77.9077,2.6805],[-77.7902,2.7301],[-77.7363,2.7871],[-77.6714,2.9358],[-77.691,3.0003],[-77.5625,3.1627],[-77.4976,3.216],[-77.4303,3.2544],[-77.347,3.1404],[-77.3164,3.1738],[-77.2344,3.1081],[-77.101,3.185],[-76.9382,3.1143],[-76.9088,3.2011],[-76.8109,3.2073],[-76.6774,3.0995],[-76.5464,3.1057],[-76.4926,3.1763],[-76.4559,3.3263],[-76.3432,3.2804],[-76.2294,3.2767],[-76.1914,3.2271],[-76.0556,3.2234]]]}},{"type":"Feature","properties":{"cod_dep":"12","nombre":"CESAR"},"geometry":{"type":"Polygon","coordinates":[[[-72.9009,10.4359],[-72.8997,10.2091],[-72.9119,10.1149],[-72.9989,9.9227],[-72.9719,9.8546],[-73.0552,9.6786],[-73.0845,9.5571],[-73.1763,9.5013],[-73.2412,9.4034],[-73.2988,9.2708],[-73.3685,9.1729],[-73.4297,9.1022],[-73.4114,9.0539],[-73.4395,8.9746],[-73.4481,8.8618],[-73.4114,8.7812],[-73.4628,8.7453],[-73.5522,8.6064],[-73.5314,8.5283],[-73.4726,8.4478],[-73.5167,8.3957],[-73.4567,8.361],[-73.3942,8.3784],[-73.3502,8.3337],[-73.4053,8.2457],[-73.4322,8.1404],[-73.3771,8.1057],[-73.3661,8.0226],[-73.278,7.9855],[-73.2792,7.9359],[-73.3514,7.8925],[-73.3514,7.7946],[-73.4114,7.7165],[-73.4812,7.6768],[-73.633,7.7487],[-73.7529,7.7512],[-73.7505,7.8033],[-73.6709,7.8937],[-73.6758,7.9433],[-73.7639,8.0635],[-73.775,8.1453],[-73.7468,8.4664],[-73.8203,8.6622],[-73.7896,8.749],[-73.7958,8.8184],[-73.8668,8.8865],[-73.868,8.9361],[-73.7982,9.0588],[-73.8643,9.1121],[-73.8913,9.1741],[-73.9623,9.1877],[-73.9427,9.2894],[-73.9892,9.3166],[-73.9794,9.3898],[-74.1373,9.4964],[-74.0369,9.5918],[-73.868,9.6005],[-73.8031,9.6364],[-73.8423,9.7976],[-73.8974,9.8372],[-73.9586,9.9314],[-73.9929,9.9364],[-74.0834,10.0702],[-74.0651,10.1669],[-73.9537,10.3392],[-73.8925,10.3913],[-73.7799,10.3962],[-73.6599,10.4557],[-73.5999,10.5759],[-73.5938,10.7049],[-73.5509,10.7495],[-73.5987,10.8362],[-73.4799,10.8672],[-73.2914,10.8623],[-73.2559,10.8263],[-73.2633,10.7321],[-73.1139,10.6788],[-73.076,10.6367],[-73.0992,10.5511],[-73.1751,10.4805],[-73.1274,10.3987],[-73.0882,10.4247],[-72.9866,10.3999],[-72.9009,10.4359]]]}},{"type":"Feature","properties":{"cod_dep":"13","nombre":"CORDOBA"},"geometry":{"type":"Polygon","coordinates":[[[-75.7006,9.4121],[-75.5696,9.2795],[-75.4582,9.2386],[-75.4447,9.1406],[-75.3921,9.1592],[-75.2807,9.0725],[-75.2097,9.0502],[-75.168,8.9522],[-75.2452,8.8828],[-75.3639,8.8295],[-75.3284,8.7366],[-75.3517,8.6585],[-75.3284,8.5618],[-75.2672,8.4874],[-75.2133,8.4738],[-75.1852,8.397],[-75.1277,8.4688],[-75.042,8.4577],[-75.0077,8.511],[-74.9257,8.4998],[-74.8743,8.4032],[-74.8008,8.3375],[-74.7812,8.278],[-74.8302,8.1999],[-74.9281,8.0747],[-74.9661,8.0896],[-75.0567,8.0474],[-75.1925,8.0474],[-75.2207,8.066],[-75.3296,7.9272],[-75.4741,7.7772],[-75.6051,7.5851],[-75.7116,7.5814],[-75.7422,7.6124],[-75.845,7.3471],[-76.3812,7.3918],[-76.4938,7.5417],[-76.4816,7.8206],[-76.4118,8.0065],[-76.4289,8.0586],[-76.3481,8.1553],[-76.3518,8.2036],[-76.2882,8.3288],[-76.2269,8.3808],[-76.2098,8.5234],[-76.2661,8.6387],[-76.3396,8.6411],[-76.413,8.8742],[-76.3396,8.9188],[-76.2649,8.9981],[-76.2514,9.0576],[-76.189,9.1159],[-76.1706,9.2299],[-76.1021,9.2757],[-76.0813,9.3365],[-75.9784,9.3761],[-75.9491,9.4443],[-75.7838,9.3935],[-75.7006,9.4121]]]}},{"type":"Feature","properties":{"cod_dep":"15","nombre":"CUNDINAMARCA"},"geometry":{"type":"Polygon","coordinates":[[[-73.0527,4.7368],[-73.1237,4.2596],[-73.3539,4.3216],[-73.4726,4.2757],[-73.5509,4.3079],[-73.573,4.4195],[-73.6024,4.4542],[-73.5681,4.5273],[-73.6219,4.562],[-73.7272,4.5025],[-73.8068,4.422],[-73.7835,4.3005],[-73.7444,4.2658],[-73.7529,4.1927],[-73.8141,4.2013],[-73.9561,4.0997],[-74.0051,4.1096],[-74.1006,4.013],[-74.1508,4.0043],[-74.1092,4.1691],[-74.152,4.2559],[-74.0981,4.3451],[-74.1165,4.4046],[-74.0051,4.5608],[-74.0088,4.8211],[-74.0516,4.8322],[-74.1728,4.7108],[-74.1777,4.4864],[-74.212,4.3935],[-74.2169,4.2732],[-74.245,4.1034],[-74.3246,4.127],[-74.3662,4.0365],[-74.3601,3.9138],[-74.4397,3.7304],[-74.4458,3.801],[-74.5352,3.8431],[-74.5131,3.9535],[-74.5315,4.034],[-74.4764,4.1121],[-74.4838,4.1766],[-74.5621,4.272],[-74.6392,4.2113],[-74.7017,4.2125],[-74.813,4.2943],[-74.8791,4.2658],[-74.8326,4.4431],[-74.7873,4.5087],[-74.8143,4.5856],[-74.7886,4.6587],[-74.8143,4.7356],[-74.7433,4.7901],[-74.7518,4.8657],[-74.7163,5.0925],[-74.7347,5.2871],[-74.6674,5.4049],[-74.6747,5.5164],[-74.627,5.6974],[-74.6612,5.7519],[-74.5927,5.747],[-74.5303,5.7904],[-74.4323,5.7581],[-74.3344,5.8275],[-74.2867,5.7457],[-74.3099,5.6193],[-74.1434,5.4483],[-73.9904,5.3751],[-73.906,5.4458],[-73.89,5.5127],[-73.8178,5.5536],[-73.7823,5.5003],[-73.6183,5.4049],[-73.5779,5.302],[-73.5314,5.2785],[-73.4799,5.064],[-73.5154,5.0355],[-73.5473,4.924],[-73.5203,4.8793],[-73.4016,4.8793],[-73.3722,4.8012],[-73.3061,4.7318],[-73.2229,4.7331],[-73.2241,4.6786],[-73.1029,4.6612],[-73.0527,4.7368]]]}},{"type":"Feature","properties":{"cod_dep":"16","nombre":"BOGOTA D.C."},"geometry":{"type":"Polygon","coordinates":[[[-74.1508,4.0043],[-74.2291,3.9944],[-74.3356,3.8221],[-74.4164,3.7403],[-74.4397,3.7304],[-74.3601,3.9138],[-74.3662,4.0365],[-74.3246,4.127],[-74.245,4.1034],[-74.2169,4.2732],[-74.212,4.3935],[-74.1777,4.4864],[-74.1728,4.7108],[-74.0516,4.8322],[-74.0088,4.8211],[-74.0051,4.5608],[-74.1165,4.4046],[-74.0981,4.3451],[-74.152,4.2559],[-74.1092,4.1691],[-74.1508,4.0043]]]}},{"type":"Feature","properties":{"cod_dep":"17","nombre":"CHOCO"},"geometry":{"type":"Polygon","coordinates":[[[-76.9798,8.2557],[-76.9382,8.0685],[-76.9969,8.0189],[-77.0263,7.89],[-77.123,7.7896],[-76.9602,7.6396],[-76.9357,7.5839],[-76.8011,7.5715],[-76.6615,7.4488],[-76.615,7.3124],[-76.5305,7.2554],[-76.4999,7.1686],[-76.5477,7.0013],[-76.6762,7.0298],[-76.8243,7.005],[-76.7937,6.865],[-76.8757,6.8513],[-76.9724,6.798],[-76.9541,6.6753],[-76.899,6.5799],[-76.7778,6.4894],[-76.79,6.3184],[-76.7178,6.2155],[-76.7166,6.1709],[-76.6015,6.1919],[-76.4204,6.1659],[-76.3775,6.1932],[-76.238,6.2081],[-76.2098,6.1845],[-76.1914,6.0593],[-76.1596,6.0035],[-76.1045,6.0184],[-76.0568,5.8957],[-76.0984,5.8498],[-76.0629,5.7271],[-76.0874,5.6887],[-76.0066,5.623],[-76.009,5.5672],[-76.0849,5.5338],[-76.0886,5.4458],[-76.1902,5.3974],[-76.2012,5.3218],[-76.1241,5.1731],[-76.0605,5.1359],[-76.0776,5.0467],[-76.0886,4.9463],[-76.1449,4.8384],[-76.211,4.8298],[-76.3126,4.7504],[-76.2857,4.712],[-76.3861,4.4815],[-76.5624,4.3699],[-76.5269,4.2881],[-76.4448,4.1753],[-76.4987,4.0638],[-76.5893,3.9931],[-76.6811,3.9646],[-76.8672,4.0328],[-76.9149,4.096],[-76.9945,4.1208],[-77.0496,4.0948],[-77.1585,4.1828],[-77.3066,4.1654],[-77.3532,4.1976],[-77.4499,4.039],[-77.5258,4.127],[-77.5245,4.2571],[-77.4278,4.3179],[-77.3544,4.4158],[-77.3262,4.5695],[-77.3128,4.774],[-77.3483,4.8112],[-77.3752,4.9587],[-77.3874,5.2884],[-77.4131,5.4036],[-77.3899,5.4433],[-77.4719,5.4904],[-77.5392,5.4805],[-77.5037,5.5846],[-77.4217,5.6255],[-77.3385,5.6193],[-77.2638,5.716],[-77.2565,5.7941],[-77.2895,5.8461],[-77.336,6.0011],[-77.4548,6.1337],[-77.4829,6.1932],[-77.4095,6.2279],[-77.3593,6.3927],[-77.3593,6.4882],[-77.325,6.5489],[-77.3972,6.6208],[-77.4486,6.7063],[-77.516,6.6567],[-77.5698,6.7956],[-77.6176,6.8427],[-77.7106,6.8798],[-77.6629,7.0001],[-77.8832,7.2182],[-77.7926,7.4612],[-77.702,7.5095],[-77.7486,7.6148],[-77.7424,7.6781],[-77.647,7.6533],[-77.6066,7.5417],[-77.5686,7.5083],[-77.4927,7.5839],[-77.3128,7.8975],[-77.1793,7.9173],[-77.2185,8.0896],[-77.2613,8.2123],[-77.3336,8.2743],[-77.3862,8.4403],[-77.4499,8.4998],[-77.3446,8.6448],[-77.287,8.5717],[-77.2479,8.4713],[-77.1291,8.4093],[-77.0361,8.2532],[-76.9798,8.2557]]]}},{"type":"Feature","properties":{"cod_dep":"19","nombre":"HUILA"},"geometry":{"type":"Polygon","coordinates":[[[-74.4397,3.7304],[-74.4164,3.7403],[-74.5021,3.6473],[-74.5633,3.5258],[-74.616,3.4602],[-74.6392,3.3684],[-74.616,3.3213],[-74.7506,3.1081],[-74.8987,2.9644],[-75.0701,2.745],[-75.1472,2.7227],[-75.1325,2.5962],[-75.2868,2.4103],[-75.3101,2.362],[-75.3859,2.3149],[-75.4447,2.1438],[-75.5353,2.1178],[-75.6161,1.9963],[-75.6589,1.8922],[-75.7348,1.7869],[-75.8474,1.7224],[-75.9038,1.7162],[-76.0348,1.5823],[-76.1241,1.5662],[-76.1694,1.5885],[-76.2453,1.6827],[-76.3812,1.6666],[-76.3702,1.7323],[-76.4338,1.7906],[-76.5881,1.8662],[-76.6248,1.974],[-76.5868,2.0],[-76.5893,2.1079],[-76.5538,2.1401],[-76.4253,2.129],[-76.3849,2.269],[-76.3028,2.2839],[-76.2086,2.1984],[-76.1217,2.2244],[-76.1462,2.2938],[-76.1266,2.3806],[-76.0335,2.4016],[-75.9797,2.5033],[-75.8634,2.4264],[-75.823,2.4834],[-75.8401,2.5578],[-75.7483,2.7189],[-75.8058,2.7685],[-75.823,2.8355],[-75.8964,2.8553],[-76.0286,2.9408],[-75.8597,2.8726],[-75.8034,2.885],[-75.692,2.9929],[-75.6271,3.0028],[-75.6222,3.0759],[-75.583,3.1242],[-75.5769,3.2209],[-75.479,3.361],[-75.4263,3.3523],[-75.3664,3.4068],[-75.2415,3.4044],[-75.1497,3.4354],[-75.0456,3.4316],[-75.0358,3.2866],[-74.9073,3.2903],[-74.7653,3.4403],[-74.7751,3.5246],[-74.6759,3.6659],[-74.5572,3.7675],[-74.5352,3.8431],[-74.4458,3.801],[-74.4397,3.7304]]]}},{"type":"Feature","properties":{"cod_dep":"21","nombre":"MAGDALENA"},"geometry":{"type":"Polygon","coordinates":[[[-73.5754,11.2601],[-73.584,11.1895],[-73.6281,11.1424],[-73.6648,10.9899],[-73.5987,10.8362],[-73.5509,10.7495],[-73.5938,10.7049],[-73.5999,10.5759],[-73.6599,10.4557],[-73.7799,10.3962],[-73.8925,10.3913],[-73.9537,10.3392],[-74.0651,10.1669],[-74.0834,10.0702],[-73.9929,9.9364],[-73.9586,9.9314],[-73.8974,9.8372],[-73.8423,9.7976],[-73.8031,9.6364],[-73.868,9.6005],[-74.0369,9.5918],[-74.1373,9.4964],[-73.9794,9.3898],[-73.9892,9.3166],[-73.9427,9.2894],[-73.9623,9.1877],[-73.8913,9.1741],[-73.8643,9.1121],[-73.7982,9.0588],[-73.868,8.9361],[-73.8717,8.9609],[-74.0039,9.0303],[-74.1043,9.0216],[-74.1753,9.0749],[-74.2487,9.1642],[-74.3418,9.2311],[-74.403,9.2138],[-74.4397,9.2745],[-74.5143,9.2336],[-74.5645,9.3117],[-74.6992,9.4269],[-74.7371,9.422],[-74.8057,9.5534],[-74.7726,9.6042],[-74.8033,9.6674],[-74.8155,9.7852],[-74.873,9.8484],[-74.873,9.9351],[-74.7873,10.0083],[-74.84,10.0789],[-74.9453,10.1285],[-74.911,10.2537],[-74.8277,10.4111],[-74.8094,10.4756],[-74.7359,10.5511],[-74.7212,10.9044],[-74.7641,10.9949],[-74.8522,11.1052],[-74.5988,11.0085],[-74.474,10.9788],[-74.3564,10.9763],[-74.2634,11.0073],[-74.2181,11.0655],[-74.2377,11.2217],[-74.1459,11.3357],[-74.0773,11.3171],[-73.9794,11.3395],[-73.857,11.2738],[-73.6611,11.2527],[-73.5754,11.2601]]]}},{"type":"Feature","properties":{"cod_dep":"23","nombre":"NARIÑO"},"geometry":{"type":"Polygon","coordinates":[[[-77.9285,2.6409],[-77.9175,2.4116],[-77.8477,2.2603],[-77.8355,2.1761],[-77.7339,2.1339],[-77.5539,2.2021],[-77.4878,2.1947],[-77.4597,2.2864],[-77.3226,2.2219],[-77.3079,2.1079],[-77.3324,2.0496],[-77.2038,1.9517],[-77.2809,1.86],[-77.3299,1.6865],[-77.2393,1.658],[-76.9357,1.7286],[-76.8341,1.6146],[-76.9284,1.4832],[-76.921,1.3456],[-76.981,1.2229],[-77.0887,1.1832],[-77.0838,1.0618],[-77.0275,0.9948],[-77.1169,0.9006],[-77.1867,0.6304],[-77.1279,0.6019],[-77.1304,0.5251],[-77.09,0.4259],[-77.1132,0.3726],[-77.2969,0.3652],[-77.325,0.3875],[-77.5233,0.416],[-77.5221,0.5313],[-77.4854,0.6565],[-77.5637,0.6515],[-77.6971,0.7544],[-77.6641,0.8114],[-77.7131,0.8511],[-77.8673,0.8015],[-77.9652,0.8238],[-78.0338,0.8796],[-78.1966,0.949],[-78.1954,0.9849],[-78.27,1.0469],[-78.3141,1.1907],[-78.4182,1.1597],[-78.5063,1.1969],[-78.5443,1.244],[-78.6214,1.2502],[-78.7095,1.3593],[-78.7903,1.4076],[-78.8185,1.4733],[-78.9592,1.5935],[-79.007,1.658],[-78.8613,1.8067],[-78.8099,1.829],[-78.7169,1.7695],[-78.6018,1.7943],[-78.5394,1.8575],[-78.5993,1.8997],[-78.5871,1.9728],[-78.6716,2.031],[-78.7132,2.1649],[-78.6275,2.3198],[-78.6238,2.3719],[-78.5504,2.4921],[-78.3337,2.6557],[-78.1427,2.6805],[-78.073,2.6111],[-78.035,2.6483],[-77.9285,2.6409]]]}},{"type":"Feature","properties":{"cod_dep":"24","nombre":"RISARALDA"},"geometry":{"type":"Polygon","coordinates":[[[-75.8683,5.4904],[-75.8585,5.3776],[-75.8107,5.3615],[-75.7397,5.3974],[-75.6479,5.3082],[-75.6932,5.2549],[-75.8034,5.2809],[-75.8022,5.1979],[-75.9172,5.0789],[-75.8903,4.9599],[-75.8144,4.919],[-75.7471,5.0467],[-75.714,4.9562],[-75.4827,4.9165],[-75.4276,4.8161],[-75.3749,4.8025],[-75.3884,4.7157],[-75.4925,4.6662],[-75.583,4.707],[-75.714,4.7133],[-75.7911,4.7182],[-75.9356,4.8087],[-75.9882,4.8744],[-76.0776,5.0467],[-76.0605,5.1359],[-76.1241,5.1731],[-76.2012,5.3218],[-76.1902,5.3974],[-76.0886,5.4458],[-76.0849,5.5338],[-76.009,5.5672],[-75.9833,5.5189],[-75.8683,5.4904]]]}},{"type":"Feature","properties":{"cod_dep":"25","nombre":"NORTE DE SAN"},"geometry":{"type":"Polygon","coordinates":[[[-72.0477,7.0385],[-72.1995,7.041],[-72.2203,6.9864],[-72.2913,6.9939],[-72.3133,6.9319],[-72.3929,6.8724],[-72.5031,6.9084],[-72.5533,6.9852],[-72.7222,7.005],[-72.7871,7.0484],[-72.8581,7.1538],[-72.8409,7.1947],[-72.8703,7.2777],[-72.8409,7.362],[-72.9009,7.4339],[-72.8936,7.4748],[-72.978,7.5293],[-72.9927,7.5975],[-73.218,7.6322],[-73.2473,7.5578],[-73.3551,7.5442],[-73.5057,7.595],[-73.5167,7.6372],[-73.633,7.7487],[-73.4812,7.6768],[-73.4114,7.7165],[-73.3514,7.7946],[-73.3514,7.8925],[-73.2792,7.9359],[-73.278,7.9855],[-73.3661,8.0226],[-73.3771,8.1057],[-73.4322,8.1404],[-73.4053,8.2457],[-73.3502,8.3337],[-73.3942,8.3784],[-73.4567,8.361],[-73.5167,8.3957],[-73.4726,8.4478],[-73.5314,8.5283],[-73.5522,8.6064],[-73.4628,8.7453],[-73.4114,8.7812],[-73.4481,8.8618],[-73.4395,8.9746],[-73.4114,9.0539],[-73.4297,9.1022],[-73.3685,9.1729],[-73.2523,9.158],[-73.1763,9.1766],[-73.0087,9.2906],[-72.9646,9.2001],[-72.9817,9.1468],[-72.9327,9.0824],[-72.8826,9.1307],[-72.7663,9.0997],[-72.7198,8.9411],[-72.6549,8.6151],[-72.3892,8.3486],[-72.3831,8.2321],[-72.3537,8.1565],[-72.3733,8.1044],[-72.3464,8.0375],[-72.4872,7.9458],[-72.4443,7.8603],[-72.4688,7.7933],[-72.4761,7.6334],[-72.4529,7.5653],[-72.4786,7.4983],[-72.4247,7.4017],[-72.2558,7.3781],[-72.1983,7.3868],[-72.1542,7.3285],[-72.1701,7.2517],[-72.0477,7.0385]]]}},{"type":"Feature","properties":{"cod_dep":"26","nombre":"QUINDIO"},"geometry":{"type":"Polygon","coordinates":[[[-75.3884,4.7157],[-75.4153,4.6228],[-75.5145,4.5558],[-75.5781,4.4517],[-75.5928,4.3191],[-75.6969,4.1319],[-75.752,4.0774],[-75.8401,4.101],[-75.823,4.2286],[-75.7875,4.2943],[-75.8034,4.396],[-75.8879,4.4306],[-75.867,4.6079],[-75.8254,4.6637],[-75.7067,4.6575],[-75.714,4.7133],[-75.583,4.707],[-75.4925,4.6662],[-75.3884,4.7157]]]}},{"type":"Feature","properties":{"cod_dep":"27","nombre":"SANTANDER"},"geometry":{"type":"Polygon","coordinates":[[[-73.633,7.7487],[-73.5167,7.6372],[-73.5057,7.595],[-73.3551,7.5442],[-73.2473,7.5578],[-73.218,7.6322],[-72.9927,7.5975],[-72.978,7.5293],[-72.8936,7.4748],[-72.9009,7.4339],[-72.8409,7.362],[-72.8703,7.2777],[-72.8409,7.1947],[-72.8581,7.1538],[-72.7871,7.0484],[-72.7222,7.005],[-72.5533,6.9852],[-72.5031,6.9084],[-72.4859,6.6567],[-72.5459,6.5675],[-72.5398,6.4882],[-72.661,6.4436],[-72.7357,6.4906],[-72.732,6.3568],[-72.7577,6.3171],[-72.7442,6.2353],[-72.8042,6.2155],[-72.9536,6.0655],[-73.1298,5.9589],[-73.1996,6.0035],[-73.2192,5.9131],[-73.1837,5.8498],[-73.3453,5.8424],[-73.3906,5.7507],[-73.4738,5.8164],[-73.4444,5.9019],[-73.4016,5.9019],[-73.371,6.006],[-73.4028,6.0544],[-73.4971,6.1077],[-73.5864,6.006],[-73.6305,5.8945],[-73.5999,5.8697],[-73.6391,5.7247],[-73.7113,5.7767],[-73.8619,5.711],[-73.9047,5.7395],[-73.9978,5.7408],[-74.0259,5.8065],[-74.1802,5.9106],[-74.2867,6.0829],[-74.3785,6.0395],[-74.4519,6.099],[-74.5266,6.2737],[-74.4507,6.332],[-74.3968,6.4522],[-74.4091,6.5861],[-74.3589,6.6332],[-74.2561,6.6753],[-74.2316,6.71],[-74.1153,6.7658],[-74.0112,6.9133],[-73.8974,6.9864],[-73.8876,7.0707],[-73.939,7.1823],[-73.9157,7.2951],[-73.8949,7.4314],[-73.917,7.4723],[-73.846,7.5417],[-73.7982,7.657],[-73.83,7.7276],[-73.7982,7.7723],[-73.8313,7.9322],[-73.8619,7.9718],[-73.8668,8.0697],[-73.775,8.1453],[-73.7639,8.0635],[-73.6758,7.9433],[-73.6709,7.8937],[-73.7505,7.8033],[-73.7529,7.7512],[-73.633,7.7487]]]}},{"type":"Feature","properties":{"cod_dep":"28","nombre":"SUCRE"},"geometry":{"type":"Polygon","coordinates":[[[-74.7812,8.278],[-74.8008,8.3375],[-74.8743,8.4032],[-74.9257,8.4998],[-75.0077,8.511],[-75.042,8.4577],[-75.1277,8.4688],[-75.1852,8.397],[-75.2133,8.4738],[-75.2672,8.4874],[-75.3284,8.5618],[-75.3517,8.6585],[-75.3284,8.7366],[-75.3639,8.8295],[-75.2452,8.8828],[-75.168,8.9522],[-75.2097,9.0502],[-75.2807,9.0725],[-75.3921,9.1592],[-75.4447,9.1406],[-75.4582,9.2386],[-75.5696,9.2795],[-75.7006,9.4121],[-75.6357,9.4282],[-75.5965,9.4902],[-75.5708,9.6178],[-75.6442,9.7567],[-75.5818,9.9512],[-75.5732,10.0863],[-75.4912,10.038],[-75.4667,9.9091],[-75.3933,9.8806],[-75.3358,9.8124],[-75.3749,9.6575],[-75.3247,9.6253],[-75.2794,9.686],[-75.1325,9.5955],[-75.0322,9.4666],[-74.9122,9.4158],[-74.9416,9.3514],[-74.9024,9.163],[-74.8645,9.1481],[-74.8277,9.0613],[-74.6392,8.977],[-74.5401,8.8047],[-74.6086,8.7304],[-74.5339,8.4763],[-74.5401,8.4255],[-74.649,8.3139],[-74.7812,8.278]]]}},{"type":"Feature","properties":{"cod_dep":"29","nombre":"TOLIMA"},"geometry":{"type":"Polygon","coordinates":[[[-74.7347,5.2871],[-74.7163,5.0925],[-74.7518,4.8657],[-74.7433,4.7901],[-74.8143,4.7356],[-74.7886,4.6587],[-74.8143,4.5856],[-74.7873,4.5087],[-74.8326,4.4431],[-74.8791,4.2658],[-74.813,4.2943],[-74.7017,4.2125],[-74.6392,4.2113],[-74.5621,4.272],[-74.4838,4.1766],[-74.4764,4.1121],[-74.5315,4.034],[-74.5131,3.9535],[-74.5352,3.8431],[-74.5572,3.7675],[-74.6759,3.6659],[-74.7751,3.5246],[-74.7653,3.4403],[-74.9073,3.2903],[-75.0358,3.2866],[-75.0456,3.4316],[-75.1497,3.4354],[-75.2415,3.4044],[-75.3664,3.4068],[-75.4263,3.3523],[-75.479,3.361],[-75.5769,3.2209],[-75.583,3.1242],[-75.6222,3.0759],[-75.6271,3.0028],[-75.692,2.9929],[-75.8034,2.885],[-75.8597,2.8726],[-76.0286,2.9408],[-76.0213,3.0053],[-76.0727,3.0499],[-76.0911,3.1986],[-76.0556,3.2234],[-76.0384,3.3015],[-76.0617,3.3548],[-76.0274,3.4874],[-75.9846,3.5593],[-75.9931,3.6089],[-75.9552,3.7142],[-75.9221,3.739],[-75.8621,3.8741],[-75.8071,3.9312],[-75.752,4.0774],[-75.6969,4.1319],[-75.5928,4.3191],[-75.5781,4.4517],[-75.5145,4.5558],[-75.4153,4.6228],[-75.3884,4.7157],[-75.3749,4.8025],[-75.3235,4.8657],[-75.3517,4.9388],[-75.3174,5.0281],[-75.3443,5.0814],[-75.288,5.1384],[-75.1166,5.1607],[-75.0567,5.2747],[-74.9391,5.3132],[-74.851,5.3144],[-74.7347,5.2871]]]}},{"type":"Feature","properties":{"cod_dep":"31","nombre":"VALLE"},"geometry":{"type":"Polygon","coordinates":[[[-75.714,4.7133],[-75.7067,4.6575],[-75.8254,4.6637],[-75.867,4.6079],[-75.8879,4.4306],[-75.8034,4.396],[-75.7875,4.2943],[-75.823,4.2286],[-75.8401,4.101],[-75.752,4.0774],[-75.8071,3.9312],[-75.8621,3.8741],[-75.9221,3.739],[-75.9552,3.7142],[-75.9931,3.6089],[-75.9846,3.5593],[-76.0274,3.4874],[-76.0617,3.3548],[-76.0384,3.3015],[-76.0556,3.2234],[-76.1914,3.2271],[-76.2294,3.2767],[-76.3432,3.2804],[-76.4559,3.3263],[-76.4926,3.1763],[-76.5464,3.1057],[-76.6774,3.0995],[-76.8109,3.2073],[-76.9088,3.2011],[-76.9382,3.1143],[-77.101,3.185],[-77.2344,3.1081],[-77.3164,3.1738],[-77.347,3.1404],[-77.4303,3.2544],[-77.4976,3.216],[-77.5503,3.2309],[-77.4805,3.3226],[-77.3372,3.4478],[-77.3666,3.4837],[-77.3005,3.5705],[-77.2283,3.5829],[-77.1842,3.6547],[-77.1977,3.7465],[-77.1805,3.832],[-77.2834,3.8419],[-77.3177,3.9497],[-77.2124,4.0092],[-77.243,4.0836],[-77.314,4.0291],[-77.3593,3.9262],[-77.4499,4.039],[-77.3532,4.1976],[-77.3066,4.1654],[-77.1585,4.1828],[-77.0496,4.0948],[-76.9945,4.1208],[-76.9149,4.096],[-76.8672,4.0328],[-76.6811,3.9646],[-76.5893,3.9931],[-76.4987,4.0638],[-76.4448,4.1753],[-76.5269,4.2881],[-76.5624,4.3699],[-76.3861,4.4815],[-76.2857,4.712],[-76.3126,4.7504],[-76.211,4.8298],[-76.1449,4.8384],[-76.0886,4.9463],[-76.0776,5.0467],[-75.9882,4.8744],[-75.9356,4.8087],[-75.7911,4.7182],[-75.714,4.7133]]]}},{"type":"Feature","properties":{"cod_dep":"40","nombre":"ARAUCA"},"geometry":{"type":"Polygon","coordinates":[[[-69.428,6.1077],[-69.5357,6.0457],[-69.8356,6.0407],[-69.9825,6.1585],[-70.0303,6.1622],[-70.1209,6.2576],[-70.1992,6.2948],[-70.3131,6.2799],[-70.3804,6.3022],[-70.531,6.2304],[-70.5567,6.2452],[-70.7232,6.2167],[-70.7868,6.2514],[-70.9839,6.2291],[-71.0965,6.2775],[-71.2189,6.2985],[-71.345,6.2316],[-71.4172,6.2428],[-71.4882,6.2019],[-71.5335,6.2142],[-71.667,6.1919],[-71.7772,6.1932],[-71.88,6.1597],[-71.9608,6.1672],[-72.1383,6.0667],[-72.2778,6.1362],[-72.2925,6.2043],[-72.3439,6.2266],[-72.3672,6.3072],[-72.339,6.3456],[-72.2607,6.4423],[-72.1383,6.5142],[-72.0918,6.6481],[-72.1003,6.746],[-72.0514,6.7683],[-71.9485,7.0112],[-71.8347,7.0261],[-71.8114,7.0621],[-71.7147,7.0348],[-71.6486,7.0509],[-71.5739,7.0261],[-71.4246,7.0385],[-71.3793,7.0174],[-71.1283,7.0323],[-71.1112,6.9902],[-71.0219,6.974],[-70.8958,7.0596],[-70.6975,7.0943],[-70.6081,7.0645],[-70.5481,7.0744],[-70.5028,7.0063],[-70.4306,7.0075],[-70.3229,6.9344],[-70.2249,6.9753],[-70.1172,6.979],[-69.8136,6.5972],[-69.428,6.1077]]]}},{"type":"Feature","properties":{"cod_dep":"44","nombre":"CAQUETA"},"geometry":{"type":"Polygon","coordinates":[[[-73.6599,1.6121],[-73.6587,1.5761],[-73.4763,1.3617],[-73.4138,1.2452],[-73.393,1.1473],[-73.322,1.0804],[-73.0784,0.8944],[-73.0454,0.9056],[-72.8568,1.0432],[-72.8703,1.1461],[-72.7981,1.1758],[-72.6512,1.1721],[-72.508,1.068],[-72.4676,1.0841],[-72.399,1.0023],[-72.2693,0.7631],[-72.0807,0.7048],[-72.033,0.6639],[-71.9816,0.6292],[-71.9901,0.566],[-71.9289,0.5437],[-71.9216,0.4594],[-71.8567,0.4557],[-71.8322,0.3392],[-71.7698,0.328],[-71.6976,0.2375],[-71.6266,0.2165],[-71.5837,0.1632],[-71.4491,0.1396],[-71.3744,0.1743],[-71.2973,0.0752],[-71.2544,0.059],[-71.2716,0.0355],[-71.4748,-0.0116],[-71.5495,0.0219],[-71.7049,-0.0674],[-71.7368,-0.1641],[-71.711,-0.2322],[-71.7894,-0.2707],[-72.0195,-0.2632],[-72.0624,-0.3252],[-72.1432,-0.3475],[-72.1836,-0.4615],[-72.2301,-0.4925],[-72.2423,-0.6053],[-72.317,-0.6524],[-72.4333,-0.5669],[-72.5386,-0.6772],[-72.5924,-0.6933],[-72.7455,-0.5607],[-72.8777,-0.6177],[-72.956,-0.5632],[-73.0442,-0.5347],[-73.1127,-0.6041],[-73.2094,-0.6239],[-73.3355,-0.5061],[-73.4885,-0.5285],[-73.5705,-0.5161],[-73.5803,-0.4553],[-73.677,-0.4219],[-73.8411,-0.3983],[-73.999,-0.3438],[-74.1092,-0.2359],[-74.1569,-0.2607],[-74.2903,-0.1975],[-74.3515,-0.107],[-74.4397,-0.0748],[-74.5413,-0.1207],[-74.7041,0.0367],[-74.6625,0.0541],[-74.6784,0.1607],[-74.7371,0.209],[-74.8449,0.214],[-74.8926,0.2487],[-74.9648,0.245],[-75.0334,0.4842],[-75.1962,0.4792],[-75.2354,0.566],[-75.2072,0.6019],[-75.2574,0.7023],[-75.3382,0.768],[-75.4227,0.7383],[-75.539,0.7903],[-75.6369,0.8771],[-75.7581,0.8374],[-75.8952,0.9354],[-75.976,1.0618],[-76.0849,1.0581],[-76.1523,1.1089],[-76.2808,1.1374],[-76.3028,1.2365],[-76.2037,1.3531],[-76.1694,1.5885],[-76.1241,1.5662],[-76.0348,1.5823],[-75.9038,1.7162],[-75.8474,1.7224],[-75.7348,1.7869],[-75.6589,1.8922],[-75.6161,1.9963],[-75.5353,2.1178],[-75.4447,2.1438],[-75.3859,2.3149],[-75.3101,2.362],[-75.2868,2.4103],[-75.1325,2.5962],[-75.1472,2.7227],[-75.0701,2.745],[-74.8987,2.9644],[-74.8791,2.9135],[-74.8033,2.9358],[-74.7616,2.8726],[-74.671,2.8875],[-74.6368,2.7103],[-74.589,2.6619],[-74.6808,2.5541],[-74.6723,2.4487],[-74.742,2.3236],[-74.7433,2.2703],[-74.6502,2.243],[-74.5939,2.1352],[-74.6441,2.0955],[-74.5609,1.9629],[-74.5633,1.8476],[-74.4703,1.8067],[-74.3222,1.7881],[-74.2071,1.7162],[-74.1055,1.6914],[-73.9941,1.6394],[-73.8582,1.6084],[-73.7395,1.6381],[-73.6599,1.6121]]]}},{"type":"Feature","properties":{"cod_dep":"46","nombre":"CASANARE"},"geometry":{"type":"Polygon","coordinates":[[[-69.8356,6.0407],[-69.8479,5.9986],[-70.0572,5.7024],[-70.1527,5.6007],[-70.2641,5.5635],[-70.3584,5.5871],[-70.6779,5.364],[-70.6938,5.2834],[-70.8652,5.1433],[-70.9423,5.126],[-71.0023,4.9797],[-71.0782,4.8992],[-71.2116,4.8174],[-71.5788,4.6736],[-71.5984,4.6451],[-71.7355,4.5744],[-71.8139,4.5744],[-71.8677,4.505],[-71.9987,4.3823],[-72.1579,4.4418],[-72.3035,4.4071],[-72.4051,4.3179],[-72.5545,4.3365],[-72.5802,4.3005],[-72.7699,4.3327],[-72.7724,4.3699],[-72.8972,4.4753],[-72.9682,4.5992],[-73.0172,4.6352],[-73.0527,4.7368],[-73.0772,4.8124],[-73.0148,5.002],[-72.9707,4.9797],[-72.9034,5.0677],[-72.9731,5.1458],[-72.8972,5.2599],[-72.8801,5.3503],[-72.8116,5.3826],[-72.6879,5.2822],[-72.5019,5.4445],[-72.3966,5.5697],[-72.3011,5.5065],[-72.2876,5.6057],[-72.2264,5.6676],[-72.3097,5.7941],[-72.459,5.8511],[-72.4162,5.9031],[-72.3256,5.9354],[-72.366,6.037],[-72.3745,6.1498],[-72.4125,6.1882],[-72.3709,6.3196],[-72.339,6.3456],[-72.3672,6.3072],[-72.3439,6.2266],[-72.2925,6.2043],[-72.2778,6.1362],[-72.1383,6.0667],[-71.9608,6.1672],[-71.88,6.1597],[-71.7772,6.1932],[-71.667,6.1919],[-71.5335,6.2142],[-71.4882,6.2019],[-71.4172,6.2428],[-71.345,6.2316],[-71.2189,6.2985],[-71.0965,6.2775],[-70.9839,6.2291],[-70.7868,6.2514],[-70.7232,6.2167],[-70.5567,6.2452],[-70.531,6.2304],[-70.3804,6.3022],[-70.3131,6.2799],[-70.1992,6.2948],[-70.1209,6.2576],[-70.0303,6.1622],[-69.9825,6.1585],[-69.8356,6.0407]]]}},{"type":"Feature","properties":{"cod_dep":"48","nombre":"LA GUAJIRA"},"geometry":{"type":"Polygon","coordinates":[[[-72.9009,10.4359],[-72.9866,10.3999],[-73.0882,10.4247],[-73.1274,10.3987],[-73.1751,10.4805],[-73.0992,10.5511],[-73.076,10.6367],[-73.1139,10.6788],[-73.2633,10.7321],[-73.2559,10.8263],[-73.2914,10.8623],[-73.4799,10.8672],[-73.5987,10.8362],[-73.6648,10.9899],[-73.6281,11.1424],[-73.584,11.1895],[-73.5754,11.2601],[-73.3624,11.2626],[-73.2755,11.2862],[-73.1433,11.4076],[-73.0246,11.4944],[-72.8838,11.5638],[-72.8263,11.6357],[-72.7234,11.7001],[-72.459,11.777],[-72.2374,11.8861],[-72.1383,12.1042],[-72.1432,12.2393],[-71.9644,12.2567],[-71.9951,12.186],[-71.9595,12.1501],[-71.8604,12.2108],[-71.9277,12.2976],[-71.8604,12.3558],[-71.8053,12.305],[-71.6915,12.3657],[-71.6241,12.4401],[-71.5421,12.4401],[-71.2826,12.3434],[-71.2251,12.2728],[-71.1149,12.0856],[-71.1357,12.0026],[-71.2348,11.953],[-71.3781,11.8117],[-71.6107,11.746],[-71.8016,11.6803],[-71.9718,11.6468],[-72.246,11.1449],[-72.3488,11.1511],[-72.4847,11.099],[-72.4847,11.0618],[-72.5802,10.9106],[-72.6377,10.8846],[-72.7112,10.752],[-72.7516,10.633],[-72.8373,10.5388],[-72.9009,10.4359]]]}},{"type":"Feature","properties":{"cod_dep":"50","nombre":"GUAINIA"},"geometry":{"type":"Polygon","coordinates":[[[-69.8454,1.7137],[-69.9018,1.7422],[-70.0548,1.777],[-70.1809,1.886],[-70.1148,1.9988],[-70.1098,2.0806],[-70.1013,2.1178],[-69.996,2.2244],[-70.0707,2.2913],[-70.1894,2.2318],[-70.2519,2.2641],[-70.3106,2.2083],[-70.4269,2.2678],[-70.4967,2.2343],[-70.5616,2.2926],[-70.6301,2.3124],[-70.7072,2.4723],[-70.766,2.5392],[-70.848,2.5677],[-70.9166,2.5603],[-70.9423,2.6061],[-70.5016,2.7884],[-70.351,2.8603],[-70.3559,2.9036],[-70.28,2.9346],[-70.2555,3.0387],[-70.2837,3.1292],[-70.247,3.1763],[-70.1282,3.2036],[-70.1576,3.2817],[-70.1123,3.3858],[-70.034,3.418],[-69.9985,3.3734],[-69.8736,3.4329],[-69.8724,3.5358],[-69.7757,3.5655],[-69.6912,3.5444],[-69.5786,3.6039],[-69.5602,3.6783],[-69.4243,3.6671],[-69.3203,3.6957],[-69.1281,3.6733],[-69.0559,3.6386],[-69.0118,3.682],[-68.7816,3.7291],[-68.7094,3.7675],[-68.5895,3.7774],[-68.5735,3.8109],[-68.4536,3.8382],[-68.4205,3.9262],[-68.3471,3.9237],[-68.314,3.9783],[-68.232,3.9733],[-68.0435,4.0117],[-67.8795,3.9175],[-67.8195,3.9795],[-67.7081,4.0452],[-67.6922,3.9361],[-67.6126,3.7551],[-67.5012,3.7675],[-67.4388,3.6399],[-67.4437,3.5853],[-67.402,3.48],[-67.3396,3.4515],[-67.3127,3.3945],[-67.3347,3.335],[-67.8623,2.8652],[-67.8219,2.8268],[-67.6579,2.797],[-67.6212,2.8144],[-67.5624,2.7214],[-67.5685,2.6681],[-67.4865,2.6669],[-67.4706,2.6248],[-67.3445,2.5244],[-67.298,2.4425],[-67.1878,2.3508],[-67.2209,2.2504],[-67.1621,2.1327],[-67.1144,2.1339],[-67.0972,2.0509],[-67.1229,1.9802],[-67.0715,1.9344],[-67.0336,1.7869],[-66.9626,1.6666],[-66.9638,1.5972],[-66.9209,1.5315],[-66.9124,1.4274],[-66.8561,1.3692],[-66.8805,1.2898],[-66.8573,1.2279],[-67.0887,1.1659],[-67.1009,1.2601],[-67.156,1.3171],[-67.0752,1.3729],[-67.0789,1.4733],[-67.1131,1.5947],[-67.1437,1.6047],[-67.1339,1.7955],[-67.2001,1.8513],[-67.227,1.9121],[-67.3029,1.9009],[-67.347,1.9852],[-67.3567,2.1116],[-67.3298,2.1463],[-67.369,2.2157],[-67.4498,2.1686],[-67.5869,2.1215],[-67.6016,2.0434],[-67.6775,2.0087],[-67.7754,2.0124],[-67.8843,1.8947],[-67.9076,1.8042],[-68.1035,1.9083],[-68.1451,1.9728],[-68.2051,1.9877],[-68.2846,1.8364],[-68.232,1.8203],[-68.1634,1.7274],[-68.8135,1.7274],[-69.3937,1.7261],[-69.5345,1.777],[-69.6447,1.7299],[-69.8454,1.7137]]]}},{"type":"Feature","properties":{"cod_dep":"52","nombre":"META"},"geometry":{"type":"Polygon","coordinates":[[[-71.0782,4.8992],[-71.0782,3.9733],[-71.0782,3.2953],[-71.0769,2.8826],[-71.2777,2.8677],[-71.3291,2.8925],[-71.3891,2.8454],[-71.4687,2.8937],[-71.6523,2.8206],[-71.7417,2.8838],[-71.8579,2.8429],[-72.0465,2.8181],[-72.1126,2.8751],[-72.2044,2.859],[-72.3586,2.7809],[-72.3892,2.7363],[-72.47,2.7338],[-72.4859,2.6855],[-72.5631,2.6818],[-72.5998,2.6148],[-72.7002,2.6198],[-72.7357,2.5715],[-72.8165,2.6148],[-72.9217,2.5603],[-72.9364,2.5033],[-73.0123,2.4339],[-73.0662,2.4264],[-73.1531,2.3669],[-73.24,2.3893],[-73.2988,2.3359],[-73.4383,2.383],[-73.5142,2.3496],[-73.6317,2.3533],[-73.6611,2.2938],[-73.6599,1.6121],[-73.7395,1.6381],[-73.8582,1.6084],[-73.9941,1.6394],[-74.1055,1.6914],[-74.2071,1.7162],[-74.3222,1.7881],[-74.4703,1.8067],[-74.5633,1.8476],[-74.5609,1.9629],[-74.6441,2.0955],[-74.5939,2.1352],[-74.6502,2.243],[-74.7433,2.2703],[-74.742,2.3236],[-74.6723,2.4487],[-74.6808,2.5541],[-74.589,2.6619],[-74.6368,2.7103],[-74.671,2.8875],[-74.7616,2.8726],[-74.8033,2.9358],[-74.8791,2.9135],[-74.8987,2.9644],[-74.7506,3.1081],[-74.616,3.3213],[-74.6392,3.3684],[-74.616,3.4602],[-74.5633,3.5258],[-74.5021,3.6473],[-74.4164,3.7403],[-74.3356,3.8221],[-74.2291,3.9944],[-74.1508,4.0043],[-74.1006,4.013],[-74.0051,4.1096],[-73.9561,4.0997],[-73.8141,4.2013],[-73.7529,4.1927],[-73.7444,4.2658],[-73.7835,4.3005],[-73.8068,4.422],[-73.7272,4.5025],[-73.6219,4.562],[-73.5681,4.5273],[-73.6024,4.4542],[-73.573,4.4195],[-73.5509,4.3079],[-73.4726,4.2757],[-73.3539,4.3216],[-73.1237,4.2596],[-73.0527,4.7368],[-73.0172,4.6352],[-72.9682,4.5992],[-72.8972,4.4753],[-72.7724,4.3699],[-72.7699,4.3327],[-72.5802,4.3005],[-72.5545,4.3365],[-72.4051,4.3179],[-72.3035,4.4071],[-72.1579,4.4418],[-71.9987,4.3823],[-71.8677,4.505],[-71.8139,4.5744],[-71.7355,4.5744],[-71.5984,4.6451],[-71.5788,4.6736],[-71.2116,4.8174],[-71.0782,4.8992]]]}},{"type":"Feature","properties":{"cod_dep":"54","nombre":"GUAVIARE"},"geometry":{"type":"Polygon","coordinates":[[[-71.0769,2.8826],[-71.0549,2.8516],[-70.9594,2.8429],[-70.9362,2.7884],[-70.8223,2.8131],[-70.7207,2.7499],[-70.5836,2.8404],[-70.5016,2.7884],[-70.9423,2.6061],[-70.9166,2.5603],[-70.848,2.5677],[-70.766,2.5392],[-70.7072,2.4723],[-70.6301,2.3124],[-70.5616,2.2926],[-70.4967,2.2343],[-70.4269,2.2678],[-70.3106,2.2083],[-70.2519,2.2641],[-70.1894,2.2318],[-70.0707,2.2913],[-69.996,2.2244],[-70.1013,2.1178],[-70.1098,2.0806],[-70.1882,2.0236],[-70.2298,2.0348],[-70.4416,1.9939],[-70.4869,1.9492],[-70.7048,1.9071],[-70.8945,1.9195],[-70.9888,1.824],[-71.1651,1.7559],[-71.2593,1.6679],[-71.3156,1.715],[-71.4026,1.7224],[-71.3903,1.5985],[-71.4381,1.5464],[-71.4552,1.4646],[-71.547,1.27],[-71.5739,1.0816],[-71.6413,0.9948],[-71.7404,0.9849],[-71.8029,0.8882],[-72.033,0.6639],[-72.0807,0.7048],[-72.2693,0.7631],[-72.399,1.0023],[-72.4676,1.0841],[-72.508,1.068],[-72.6512,1.1721],[-72.7981,1.1758],[-72.8703,1.1461],[-72.8568,1.0432],[-73.0454,0.9056],[-73.0784,0.8944],[-73.322,1.0804],[-73.393,1.1473],[-73.4138,1.2452],[-73.4763,1.3617],[-73.6587,1.5761],[-73.6599,1.6121],[-73.6611,2.2938],[-73.6317,2.3533],[-73.5142,2.3496],[-73.4383,2.383],[-73.2988,2.3359],[-73.24,2.3893],[-73.1531,2.3669],[-73.0662,2.4264],[-73.0123,2.4339],[-72.9364,2.5033],[-72.9217,2.5603],[-72.8165,2.6148],[-72.7357,2.5715],[-72.7002,2.6198],[-72.5998,2.6148],[-72.5631,2.6818],[-72.4859,2.6855],[-72.47,2.7338],[-72.3892,2.7363],[-72.3586,2.7809],[-72.2044,2.859],[-72.1126,2.8751],[-72.0465,2.8181],[-71.8579,2.8429],[-71.7417,2.8838],[-71.6523,2.8206],[-71.4687,2.8937],[-71.3891,2.8454],[-71.3291,2.8925],[-71.2777,2.8677],[-71.0769,2.8826]]]}},{"type":"Feature","properties":{"cod_dep":"56","nombre":"SAN ANDRES"},"geometry":{"type":"Polygon","coordinates":[[[-81.7038,12.595],[-81.7038,12.543],[-81.7356,12.5306],[-81.7221,12.5777],[-81.7038,12.595]]]}},{"type":"Feature","properties":{"cod_dep":"60","nombre":"AMAZONAS"},"geometry":{"type":"Polygon","coordinates":[[[-69.4329,-1.0689],[-69.3962,-1.137],[-69.4292,-1.235],[-69.3986,-1.3663],[-69.428,-1.3874],[-69.5345,-2.0022],[-69.6679,-2.7459],[-69.7671,-3.2987],[-69.9336,-4.2196],[-69.9825,-4.1899],[-70.089,-4.0647],[-70.1772,-4.0349],[-70.1833,-3.9283],[-70.2482,-3.8949],[-70.2788,-3.8267],[-70.3547,-3.8007],[-70.4857,-3.8763],[-70.564,-3.8242],[-70.6534,-3.8292],[-70.7134,-3.7957],[-70.4391,-3.3619],[-70.0609,-2.7595],[-70.0756,-2.6641],[-70.2188,-2.6566],[-70.2604,-2.555],[-70.3743,-2.498],[-70.4391,-2.5265],[-70.5028,-2.4781],[-70.6289,-2.4794],[-70.6632,-2.3592],[-70.8407,-2.291],[-70.8688,-2.2278],[-70.9362,-2.2575],[-70.9814,-2.2141],[-71.0365,-2.2761],[-71.132,-2.2885],[-71.1271,-2.3381],[-71.1932,-2.3827],[-71.23,-2.348],[-71.3169,-2.3802],[-71.3989,-2.3592],[-71.4503,-2.2848],[-71.6082,-2.2377],[-71.629,-2.2104],[-71.7319,-2.2253],[-71.7196,-2.1646],[-71.8335,-2.1968],[-71.9155,-2.3678],[-72.0159,-2.3691],[-72.0489,-2.3393],[-72.1211,-2.405],[-72.366,-2.493],[-72.4002,-2.4348],[-72.5251,-2.4224],[-72.6316,-2.3592],[-72.6928,-2.4521],[-72.7626,-2.4001],[-72.9058,-2.4447],[-72.9829,-2.3443],[-73.0539,-2.3666],[-73.1568,-2.26],[-73.0943,-2.0443],[-73.1213,-2.0158],[-73.109,-1.8844],[-73.1568,-1.8535],[-73.2094,-1.758],[-73.3355,-1.8039],[-73.5069,-1.732],[-73.5412,-1.6985],[-73.464,-1.5895],[-73.5069,-1.4866],[-73.5828,-1.3763],[-73.6317,-1.2721],[-73.6831,-1.2412],[-73.7737,-1.2622],[-73.8692,-1.225],[-73.9047,-1.1284],[-73.9696,-1.1259],[-74.0271,-1.0652],[-74.2744,-0.9796],[-74.2671,-0.8272],[-74.3785,-0.64],[-74.3895,-0.5533],[-73.8411,-0.3983],[-73.677,-0.4219],[-73.5803,-0.4553],[-73.5705,-0.5161],[-73.4885,-0.5285],[-73.3355,-0.5061],[-73.2094,-0.6239],[-73.1127,-0.6041],[-73.0442,-0.5347],[-72.956,-0.5632],[-72.8777,-0.6177],[-72.7455,-0.5607],[-72.5924,-0.6933],[-72.5386,-0.6772],[-72.4333,-0.5669],[-72.317,-0.6524],[-72.2423,-0.6053],[-72.2301,-0.4925],[-72.1836,-0.4615],[-72.1432,-0.3475],[-72.0624,-0.3252],[-72.0195,-0.2632],[-71.7894,-0.2707],[-71.711,-0.2322],[-71.7368,-0.1641],[-71.7049,-0.0674],[-71.5495,0.0219],[-71.4748,-0.0116],[-71.2716,0.0355],[-71.2544,0.059],[-71.1847,0.0975],[-71.1369,0.007],[-70.9986,-0.0029],[-70.897,-0.1033],[-70.9447,-0.1591],[-70.8847,-0.2112],[-70.8786,-0.2806],[-70.8272,-0.3649],[-70.7391,-0.2868],[-70.6656,-0.35],[-70.6375,-0.3202],[-70.564,-0.3698],[-70.5175,-0.3599],[-70.4367,-0.4777],[-70.2678,-0.4182],[-70.2445,-0.4702],[-70.3204,-0.5495],[-70.2641,-0.5818],[-70.2519,-0.7454],[-70.291,-0.8073],[-70.2249,-0.8953],[-70.302,-0.9784],[-70.2384,-1.0205],[-70.1784,-1.0999],[-70.127,-1.1098],[-70.045,-0.9796],[-69.9605,-0.9685],[-69.936,-1.0961],[-69.8393,-1.028],[-69.7047,-1.0478],[-69.6802,-1.2027],[-69.592,-1.1457],[-69.5663,-1.1916],[-69.4819,-1.2139],[-69.4329,-1.0689]]]}},{"type":"Feature","properties":{"cod_dep":"64","nombre":"PUTUMAYO"},"geometry":{"type":"Polygon","coordinates":[[[-76.0849,1.0581],[-75.976,1.0618],[-75.8952,0.9354],[-75.7581,0.8374],[-75.6369,0.8771],[-75.539,0.7903],[-75.4227,0.7383],[-75.3382,0.768],[-75.2574,0.7023],[-75.2072,0.6019],[-75.2354,0.566],[-75.1962,0.4792],[-75.0334,0.4842],[-74.9648,0.245],[-74.8926,0.2487],[-74.8449,0.214],[-74.7371,0.209],[-74.6784,0.1607],[-74.6625,0.0541],[-74.7041,0.0367],[-74.5413,-0.1207],[-74.4397,-0.0748],[-74.3515,-0.107],[-74.2903,-0.1975],[-74.1569,-0.2607],[-74.1092,-0.2359],[-73.999,-0.3438],[-73.8411,-0.3983],[-74.3895,-0.5533],[-74.5376,-0.4628],[-74.5756,-0.3958],[-74.7261,-0.35],[-74.7775,-0.2087],[-74.8547,-0.2434],[-74.9281,-0.2285],[-75.0689,-0.0946],[-75.2023,-0.0451],[-75.2758,-0.1269],[-75.3921,-0.1021],[-75.5696,-0.0302],[-75.6332,0.0454],[-75.7397,0.0318],[-75.8217,0.0826],[-75.9552,0.2016],[-76.0103,0.2983],[-76.1327,0.3701],[-76.2,0.3726],[-76.3126,0.4334],[-76.3371,0.385],[-76.4118,0.3788],[-76.4118,0.2412],[-76.5844,0.2202],[-76.6187,0.2561],[-76.7325,0.2883],[-76.8488,0.24],[-77.0802,0.2871],[-77.1132,0.3726],[-77.09,0.4259],[-77.1304,0.5251],[-77.1279,0.6019],[-77.1867,0.6304],[-77.1169,0.9006],[-77.0275,0.9948],[-77.0838,1.0618],[-77.0887,1.1832],[-76.981,1.2229],[-76.921,1.3456],[-76.8855,1.3729],[-76.697,1.4435],[-76.6015,1.4138],[-76.5856,1.3047],[-76.5403,1.2043],[-76.5624,1.0729],[-76.544,1.037],[-76.4228,0.9601],[-76.4008,0.98],[-76.2135,0.9787],[-76.1657,1.0295],[-76.0849,1.0581]]]}},{"type":"Feature","properties":{"cod_dep":"68","nombre":"VAUPES"},"geometry":{"type":"Polygon","coordinates":[[[-70.1098,2.0806],[-70.1148,1.9988],[-70.1809,1.886],[-70.0548,1.777],[-69.9018,1.7422],[-69.8454,1.7137],[-69.8467,1.0779],[-69.7451,1.1138],[-69.6741,1.0704],[-69.3815,1.0742],[-69.3215,1.0878],[-69.1991,0.9961],[-69.1403,0.6899],[-69.1991,0.6156],[-69.3582,0.6168],[-69.4341,0.7122],[-69.4819,0.7358],[-69.6337,0.6366],[-69.6875,0.6639],[-69.723,0.6156],[-69.936,0.5536],[-70.0462,0.5635],[-70.0474,-0.1095],[-70.0658,-0.1641],[-69.9018,-0.3376],[-69.8295,-0.3624],[-69.7096,-0.4541],[-69.6116,-0.5],[-69.5725,-0.6326],[-69.6116,-0.7664],[-69.5259,-0.8693],[-69.5284,-0.9189],[-69.4304,-1.0156],[-69.4329,-1.0689],[-69.4819,-1.2139],[-69.5663,-1.1916],[-69.592,-1.1457],[-69.6802,-1.2027],[-69.7047,-1.0478],[-69.8393,-1.028],[-69.936,-1.0961],[-69.9605,-0.9685],[-70.045,-0.9796],[-70.127,-1.1098],[-70.1784,-1.0999],[-70.2384,-1.0205],[-70.302,-0.9784],[-70.2249,-0.8953],[-70.291,-0.8073],[-70.2519,-0.7454],[-70.2641,-0.5818],[-70.3204,-0.5495],[-70.2445,-0.4702],[-70.2678,-0.4182],[-70.4367,-0.4777],[-70.5175,-0.3599],[-70.564,-0.3698],[-70.6375,-0.3202],[-70.6656,-0.35],[-70.7391,-0.2868],[-70.8272,-0.3649],[-70.8786,-0.2806],[-70.8847,-0.2112],[-70.9447,-0.1591],[-70.897,-0.1033],[-70.9986,-0.0029],[-71.1369,0.007],[-71.1847,0.0975],[-71.2544,0.059],[-71.2973,0.0752],[-71.3744,0.1743],[-71.4491,0.1396],[-71.5837,0.1632],[-71.6266,0.2165],[-71.6976,0.2375],[-71.7698,0.328],[-71.8322,0.3392],[-71.8567,0.4557],[-71.9216,0.4594],[-71.9289,0.5437],[-71.9901,0.566],[-71.9816,0.6292],[-72.033,0.6639],[-71.8029,0.8882],[-71.7404,0.9849],[-71.6413,0.9948],[-71.5739,1.0816],[-71.547,1.27],[-71.4552,1.4646],[-71.4381,1.5464],[-71.3903,1.5985],[-71.4026,1.7224],[-71.3156,1.715],[-71.2593,1.6679],[-71.1651,1.7559],[-70.9888,1.824],[-70.8945,1.9195],[-70.7048,1.9071],[-70.4869,1.9492],[-70.4416,1.9939],[-70.2298,2.0348],[-70.1882,2.0236],[-70.1098,2.0806]]]}},{"type":"Feature","properties":{"cod_dep":"72","nombre":"VICHADA"},"geometry":{"type":"Polygon","coordinates":[[[-67.7081,4.0452],[-67.8195,3.9795],[-67.8795,3.9175],[-68.0435,4.0117],[-68.232,3.9733],[-68.314,3.9783],[-68.3471,3.9237],[-68.4205,3.9262],[-68.4536,3.8382],[-68.5735,3.8109],[-68.5895,3.7774],[-68.7094,3.7675],[-68.7816,3.7291],[-69.0118,3.682],[-69.0559,3.6386],[-69.1281,3.6733],[-69.3203,3.6957],[-69.4243,3.6671],[-69.5602,3.6783],[-69.5786,3.6039],[-69.6912,3.5444],[-69.7757,3.5655],[-69.8724,3.5358],[-69.8736,3.4329],[-69.9985,3.3734],[-70.034,3.418],[-70.1123,3.3858],[-70.1576,3.2817],[-70.1282,3.2036],[-70.247,3.1763],[-70.2837,3.1292],[-70.2555,3.0387],[-70.28,2.9346],[-70.3559,2.9036],[-70.351,2.8603],[-70.5016,2.7884],[-70.5836,2.8404],[-70.7207,2.7499],[-70.8223,2.8131],[-70.9362,2.7884],[-70.9594,2.8429],[-71.0549,2.8516],[-71.0769,2.8826],[-71.0782,3.2953],[-71.0782,3.9733],[-71.0782,4.8992],[-71.0023,4.9797],[-70.9423,5.126],[-70.8652,5.1433],[-70.6938,5.2834],[-70.6779,5.364],[-70.3584,5.5871],[-70.2641,5.5635],[-70.1527,5.6007],[-70.0572,5.7024],[-69.8479,5.9986],[-69.8356,6.0407],[-69.5357,6.0457],[-69.428,6.1077],[-69.3448,6.1448],[-69.3105,6.0903],[-69.237,6.0804],[-69.1232,6.1919],[-69.0436,6.2217],[-68.8759,6.1672],[-68.8306,6.1795],[-68.6433,6.1287],[-68.5968,6.1634],[-68.3789,6.1857],[-68.2957,6.1659],[-68.2577,6.1969],[-68.0937,6.2316],[-68.0263,6.1969],[-67.9247,6.2403],[-67.8354,6.3171],[-67.7693,6.2948],[-67.615,6.2874],[-67.5342,6.2589],[-67.4571,6.1895],[-67.4938,6.1275],[-67.4118,6.011],[-67.5893,5.8387],[-67.6309,5.7333],[-67.6371,5.6453],[-67.5991,5.5449],[-67.6248,5.4768],[-67.8011,5.3578],[-67.8501,5.3045],[-67.8231,5.2475],[-67.855,5.1384],[-67.806,5.0553],[-67.8378,4.9475],[-67.8182,4.707],[-67.8452,4.6451],[-67.8574,4.5248],[-67.7913,4.4666],[-67.7644,4.3612],[-67.806,4.3154],[-67.7974,4.2299],[-67.7081,4.0452]]]}}]}
